ALICE                   
1 39467U 13072F   26068.66905005  .00012311  00000+0  62398-3 0  9993
2 39467 120.4625 282.3278 0159202 246.5562 111.8695 15.07155655100262
STARLINK-35596          
1 66086U 25236A   26068.38592891  .00021378  00000+0  73184-3 0  9997
2 66086  53.1577 105.5998 0001321  76.5169 283.5979 15.30199694 22895
