[{"OBJECT_NAME":"ALICE","OBJECT_ID":"2013-072F","EPOCH":"2026-03-09T16:03:25.924320","MEAN_MOTION":15.07155655,"ECCENTRICITY":0.01592016,"INCLINATION":120.4625,"RA_OF_ASC_NODE":282.3278,"ARG_OF_PERICENTER":246.5562,"MEAN_ANOMALY":111.8695,"EPHEMERIS_TYPE":0,"CLASSIFICATION_TYPE":"U","NORAD_CAT_ID":39467,"ELEMENT_SET_NO":999,"REV_AT_EPOCH":10026,"BSTAR":0.00062398338,"MEAN_MOTION_DOT":0.00012311,"MEAN_MOTION_DDOT":0},{"OBJECT_NAME":"STARLINK-35596","OBJECT_ID":"2025-236A","EPOCH":"2026-03-09T09:15:44.257824","MEAN_MOTION":15.30199694,"ECCENTRICITY":0.00013216,"INCLINATION":53.1577,"RA_OF_ASC_NODE":105.5998,"ARG_OF_PERICENTER":76.5169,"MEAN_ANOMALY":283.5979,"EPHEMERIS_TYPE":0,"CLASSIFICATION_TYPE":"U","NORAD_CAT_ID":66086,"ELEMENT_SET_NO":999,"REV_AT_EPOCH":2289,"BSTAR":0.00073183761,"MEAN_MOTION_DOT":0.00021378,"MEAN_MOTION_DDOT":0}]
